{"fetched_at":"2026-07-21T17:53:34.868Z","source":"https://celestrak.org/NORAD/elements/gp.php?NAME=JILIN&FORMAT=JSON","constellation":"jilin-1-early","records":[{"OBJECT_NAME":"JILIN-1","OBJECT_ID":"2015-057D","EPOCH":"2026-07-21T06:22:10.894368","CLASSIFICATION_TYPE":"U","MEAN_MOTION":14.78207357,"ECCENTRICITY":0.00177378,"INCLINATION":97.6524,"RA_OF_ASC_NODE":199.9433,"ARG_OF_PERICENTER":147.7974,"MEAN_ANOMALY":212.4325,"EPHEMERIS_TYPE":0,"NORAD_CAT_ID":40961,"ELEMENT_SET_NO":999,"REV_AT_EPOCH":58064,"BSTAR":0.000079973564,"MEAN_MOTION_DOT":0.00000533,"MEAN_MOTION_DDOT":0},{"OBJECT_NAME":"JILIN-1 03","OBJECT_ID":"2017-002B","EPOCH":"2026-07-21T06:57:37.955232","CLASSIFICATION_TYPE":"U","MEAN_MOTION":15.4233125,"ECCENTRICITY":0.00075028,"INCLINATION":97.1959,"RA_OF_ASC_NODE":208.9128,"ARG_OF_PERICENTER":63.0672,"MEAN_ANOMALY":297.1341,"EPHEMERIS_TYPE":0,"NORAD_CAT_ID":41914,"ELEMENT_SET_NO":999,"REV_AT_EPOCH":52711,"BSTAR":0.00023915674,"MEAN_MOTION_DOT":0.00010234,"MEAN_MOTION_DDOT":0},{"OBJECT_NAME":"JILIN-1 04","OBJECT_ID":"2017-074A","EPOCH":"2026-07-21T06:22:30.646272","CLASSIFICATION_TYPE":"U","MEAN_MOTION":15.43236525,"ECCENTRICITY":0.00051384,"INCLINATION":97.4872,"RA_OF_ASC_NODE":312.8112,"ARG_OF_PERICENTER":84.3618,"MEAN_ANOMALY":275.8215,"EPHEMERIS_TYPE":0,"NORAD_CAT_ID":43022,"ELEMENT_SET_NO":999,"REV_AT_EPOCH":47952,"BSTAR":0.00024900407,"MEAN_MOTION_DOT":0.00010978,"MEAN_MOTION_DDOT":0},{"OBJECT_NAME":"JILIN-1 05","OBJECT_ID":"2017-074B","EPOCH":"2026-07-21T05:37:17.249088","CLASSIFICATION_TYPE":"U","MEAN_MOTION":15.34344278,"ECCENTRICITY":0.00065926,"INCLINATION":97.4877,"RA_OF_ASC_NODE":308.864,"ARG_OF_PERICENTER":108.0888,"MEAN_ANOMALY":252.1073,"EPHEMERIS_TYPE":0,"NORAD_CAT_ID":43023,"ELEMENT_SET_NO":999,"REV_AT_EPOCH":47922,"BSTAR":0.00019157253,"MEAN_MOTION_DOT":0.00006292,"MEAN_MOTION_DDOT":0},{"OBJECT_NAME":"JILIN-1 06","OBJECT_ID":"2017-074C","EPOCH":"2026-07-21T06:38:11.973408","CLASSIFICATION_TYPE":"U","MEAN_MOTION":15.34042342,"ECCENTRICITY":0.00083669,"INCLINATION":97.4801,"RA_OF_ASC_NODE":305.87,"ARG_OF_PERICENTER":116.3199,"MEAN_ANOMALY":243.8904,"EPHEMERIS_TYPE":0,"NORAD_CAT_ID":43024,"ELEMENT_SET_NO":999,"REV_AT_EPOCH":47906,"BSTAR":0.0001520558,"MEAN_MOTION_DOT":0.00004931,"MEAN_MOTION_DDOT":0},{"OBJECT_NAME":"JILIN-1 07","OBJECT_ID":"2018-008E","EPOCH":"2026-07-21T06:02:59.513280","CLASSIFICATION_TYPE":"U","MEAN_MOTION":15.35226276,"ECCENTRICITY":0.00062614,"INCLINATION":97.1771,"RA_OF_ASC_NODE":221.2829,"ARG_OF_PERICENTER":300.8022,"MEAN_ANOMALY":59.2605,"EPHEMERIS_TYPE":0,"NORAD_CAT_ID":43159,"ELEMENT_SET_NO":999,"REV_AT_EPOCH":47022,"BSTAR":0.00018986978,"MEAN_MOTION_DOT":0.00006419,"MEAN_MOTION_DDOT":0},{"OBJECT_NAME":"JILIN-1 08","OBJECT_ID":"2018-008F","EPOCH":"2026-07-21T05:04:31.516032","CLASSIFICATION_TYPE":"U","MEAN_MOTION":15.34052419,"ECCENTRICITY":0.00046244,"INCLINATION":97.1808,"RA_OF_ASC_NODE":220.5206,"ARG_OF_PERICENTER":327.2348,"MEAN_ANOMALY":32.8608,"EPHEMERIS_TYPE":0,"NORAD_CAT_ID":43160,"ELEMENT_SET_NO":999,"REV_AT_EPOCH":47016,"BSTAR":0.00013488473,"MEAN_MOTION_DOT":0.00004368,"MEAN_MOTION_DDOT":0},{"OBJECT_NAME":"JILIN-1 09","OBJECT_ID":"2019-005B","EPOCH":"2026-07-21T06:23:05.494848","CLASSIFICATION_TYPE":"U","MEAN_MOTION":15.20772563,"ECCENTRICITY":0.00017625,"INCLINATION":97.4739,"RA_OF_ASC_NODE":296.9445,"ARG_OF_PERICENTER":21.3098,"MEAN_ANOMALY":338.821,"EPHEMERIS_TYPE":0,"NORAD_CAT_ID":43943,"ELEMENT_SET_NO":999,"REV_AT_EPOCH":41432,"BSTAR":0.00015307819,"MEAN_MOTION_DOT":0.00003302,"MEAN_MOTION_DDOT":0},{"OBJECT_NAME":"JILIN-1 10","OBJECT_ID":"2019-005E","EPOCH":"2026-07-21T05:26:33.406656","CLASSIFICATION_TYPE":"U","MEAN_MOTION":15.26047629,"ECCENTRICITY":0.00091144,"INCLINATION":97.4791,"RA_OF_ASC_NODE":301.041,"ARG_OF_PERICENTER":150.2824,"MEAN_ANOMALY":209.8934,"EPHEMERIS_TYPE":0,"NORAD_CAT_ID":43946,"ELEMENT_SET_NO":999,"REV_AT_EPOCH":41450,"BSTAR":0.00017063816,"MEAN_MOTION_DOT":0.00004324,"MEAN_MOTION_DDOT":0}]}
